[
    {
        "OBJECT_NAME": "COSMOS 2464 [GLONASS-M]",
        "OBJECT_ID": "2010-041C",
        "EPOCH": "2025-03-09T15:41:22.245216",
        "MEAN_MOTION": 2.13099588,
        "ECCENTRICITY": 0.003326,
        "INCLINATION": 63.917,
        "RA_OF_ASC_NODE": 206.1725,
        "ARG_OF_PERICENTER": 12.2461,
        "MEAN_ANOMALY": 322.881,
        "EPHEMERIS_TYPE": 0,
        "CLASSIFICATION_TYPE": "U",
        "NORAD_CAT_ID": 37139,
        "ELEMENT_SET_NO": 999,
        "REV_AT_EPOCH": 11298,
        "BSTAR": 0,
        "MEAN_MOTION_DOT": -7e-08,
        "MEAN_MOTION_DDOT": 0
    },
    {
        "OBJECT_NAME": "COSMOS 2471 [GLONASS-K]",
        "OBJECT_ID": "2011-009A",
        "EPOCH": "2025-03-08T10:14:52.388736",
        "MEAN_MOTION": 2.1291133,
        "ECCENTRICITY": 0.0009467,
        "INCLINATION": 65.6616,
        "RA_OF_ASC_NODE": 330.1829,
        "ARG_OF_PERICENTER": 328.147,
        "MEAN_ANOMALY": 144.2516,
        "EPHEMERIS_TYPE": 0,
        "CLASSIFICATION_TYPE": "U",
        "NORAD_CAT_ID": 37372,
        "ELEMENT_SET_NO": 999,
        "REV_AT_EPOCH": 10916,
        "BSTAR": 0,
        "MEAN_MOTION_DOT": -7.5e-07,
        "MEAN_MOTION_DDOT": 0
    },
    {
        "OBJECT_NAME": "COSMOS 2474 [GLONASS-M]",
        "OBJECT_ID": "2011-055A",
        "EPOCH": "2025-03-09T11:01:38.683200",
        "MEAN_MOTION": 2.13101301,
        "ECCENTRICITY": 0.001169,
        "INCLINATION": 65.0316,
        "RA_OF_ASC_NODE": 88.5914,
        "ARG_OF_PERICENTER": 249.9848,
        "MEAN_ANOMALY": 104.5302,
        "EPHEMERIS_TYPE": 0,
        "CLASSIFICATION_TYPE": "U",
        "NORAD_CAT_ID": 37829,
        "ELEMENT_SET_NO": 999,
        "REV_AT_EPOCH": 10454,
        "BSTAR": 0,
        "MEAN_MOTION_DOT": 4.2e-07,
        "MEAN_MOTION_DDOT": 0
    },
    {
        "OBJECT_NAME": "COSMOS 2476 [GLONASS-M]",
        "OBJECT_ID": "2011-064A",
        "EPOCH": "2025-03-10T12:24:06.146784",
        "MEAN_MOTION": 2.13101556,
        "ECCENTRICITY": 0.0024836,
        "INCLINATION": 65.0126,
        "RA_OF_ASC_NODE": 88.5552,
        "ARG_OF_PERICENTER": 241.2087,
        "MEAN_ANOMALY": 251.4741,
        "EPHEMERIS_TYPE": 0,
        "CLASSIFICATION_TYPE": "U",
        "NORAD_CAT_ID": 37867,
        "ELEMENT_SET_NO": 999,
        "REV_AT_EPOCH": 10388,
        "BSTAR": 0,
        "MEAN_MOTION_DOT": 4.7e-07,
        "MEAN_MOTION_DDOT": 0
    },
    {
        "OBJECT_NAME": "COSMOS 2477 [GLONASS-M]",
        "OBJECT_ID": "2011-064B",
        "EPOCH": "2025-03-07T18:13:49.535904",
        "MEAN_MOTION": 2.13102957,
        "ECCENTRICITY": 0.0022031,
        "INCLINATION": 65.0177,
        "RA_OF_ASC_NODE": 88.7236,
        "ARG_OF_PERICENTER": 242.6007,
        "MEAN_ANOMALY": 114.3545,
        "EPHEMERIS_TYPE": 0,
        "CLASSIFICATION_TYPE": "U",
        "NORAD_CAT_ID": 37868,
        "ELEMENT_SET_NO": 999,
        "REV_AT_EPOCH": 10381,
        "BSTAR": 0,
        "MEAN_MOTION_DOT": 2.8e-07,
        "MEAN_MOTION_DDOT": 0
    },
    {
        "OBJECT_NAME": "COSMOS 2475 [GLONASS-M]",
        "OBJECT_ID": "2011-064C",
        "EPOCH": "2025-03-10T09:40:38.442144",
        "MEAN_MOTION": 2.13101696,
        "ECCENTRICITY": 0.0027511,
        "INCLINATION": 65.0262,
        "RA_OF_ASC_NODE": 88.6513,
        "ARG_OF_PERICENTER": 255.2351,
        "MEAN_ANOMALY": 287,
        "EPHEMERIS_TYPE": 0,
        "CLASSIFICATION_TYPE": "U",
        "NORAD_CAT_ID": 37869,
        "ELEMENT_SET_NO": 999,
        "REV_AT_EPOCH": 10388,
        "BSTAR": 0,
        "MEAN_MOTION_DOT": 4.7e-07,
        "MEAN_MOTION_DDOT": 0
    },
    {
        "OBJECT_NAME": "COSMOS 2478 [GLONASS-M]",
        "OBJECT_ID": "2011-071A",
        "EPOCH": "2025-03-09T10:30:30.678912",
        "MEAN_MOTION": 2.13015433,
        "ECCENTRICITY": 0.0016338,
        "INCLINATION": 65.7143,
        "RA_OF_ASC_NODE": 330.5106,
        "ARG_OF_PERICENTER": 224.5616,
        "MEAN_ANOMALY": 319.1574,
        "EPHEMERIS_TYPE": 0,
        "CLASSIFICATION_TYPE": "U",
        "NORAD_CAT_ID": 37938,
        "ELEMENT_SET_NO": 999,
        "REV_AT_EPOCH": 10324,
        "BSTAR": 0,
        "MEAN_MOTION_DOT": -7.4e-07,
        "MEAN_MOTION_DDOT": 0
    },
    {
        "OBJECT_NAME": "COSMOS 2485 [GLONASS-M]",
        "OBJECT_ID": "2013-019A",
        "EPOCH": "2025-03-10T06:49:05.832192",
        "MEAN_MOTION": 2.13104462,
        "ECCENTRICITY": 0.0025104,
        "INCLINATION": 65.1673,
        "RA_OF_ASC_NODE": 89.2021,
        "ARG_OF_PERICENTER": 237.2911,
        "MEAN_ANOMALY": 122.5243,
        "EPHEMERIS_TYPE": 0,
        "CLASSIFICATION_TYPE": "U",
        "NORAD_CAT_ID": 39155,
        "ELEMENT_SET_NO": 999,
        "REV_AT_EPOCH": 9239,
        "BSTAR": 0,
        "MEAN_MOTION_DOT": 4.7e-07,
        "MEAN_MOTION_DDOT": 0
    },
    {
        "OBJECT_NAME": "COSMOS 2492 [GLONASS-M]",
        "OBJECT_ID": "2014-012A",
        "EPOCH": "2025-03-10T05:46:15.322368",
        "MEAN_MOTION": 2.131032,
        "ECCENTRICITY": 0.0013776,
        "INCLINATION": 65.5529,
        "RA_OF_ASC_NODE": 329.6627,
        "ARG_OF_PERICENTER": 326.4597,
        "MEAN_ANOMALY": 33.4976,
        "EPHEMERIS_TYPE": 0,
        "CLASSIFICATION_TYPE": "U",
        "NORAD_CAT_ID": 39620,
        "ELEMENT_SET_NO": 999,
        "REV_AT_EPOCH": 8535,
        "BSTAR": 0,
        "MEAN_MOTION_DOT": -7e-07,
        "MEAN_MOTION_DDOT": 0
    },
    {
        "OBJECT_NAME": "COSMOS 2500 [GLONASS-M]",
        "OBJECT_ID": "2014-032A",
        "EPOCH": "2025-03-08T01:40:49.829088",
        "MEAN_MOTION": 2.13105931,
        "ECCENTRICITY": 0.0004831,
        "INCLINATION": 65.4905,
        "RA_OF_ASC_NODE": 329.5204,
        "ARG_OF_PERICENTER": 208.0066,
        "MEAN_ANOMALY": 152.0081,
        "EPHEMERIS_TYPE": 0,
        "CLASSIFICATION_TYPE": "U",
        "NORAD_CAT_ID": 40001,
        "ELEMENT_SET_NO": 999,
        "REV_AT_EPOCH": 8352,
        "BSTAR": 0,
        "MEAN_MOTION_DOT": -7.5e-07,
        "MEAN_MOTION_DDOT": 0
    },
    {
        "OBJECT_NAME": "COSMOS 2501 [GLONASS-K]",
        "OBJECT_ID": "2014-075A",
        "EPOCH": "2025-03-05T23:30:57.315456",
        "MEAN_MOTION": 2.13101255,
        "ECCENTRICITY": 0.0019745,
        "INCLINATION": 63.6181,
        "RA_OF_ASC_NODE": 206.5854,
        "ARG_OF_PERICENTER": 205.1046,
        "MEAN_ANOMALY": 154.774,
        "EPHEMERIS_TYPE": 0,
        "CLASSIFICATION_TYPE": "U",
        "NORAD_CAT_ID": 40315,
        "ELEMENT_SET_NO": 999,
        "REV_AT_EPOCH": 7987,
        "BSTAR": 0,
        "MEAN_MOTION_DOT": 5e-07,
        "MEAN_MOTION_DDOT": 0
    },
    {
        "OBJECT_NAME": "COSMOS 2514 [GLONASS-M]",
        "OBJECT_ID": "2016-008A",
        "EPOCH": "2025-03-10T04:28:43.433184",
        "MEAN_MOTION": 2.13102619,
        "ECCENTRICITY": 0.0008819,
        "INCLINATION": 65.282,
        "RA_OF_ASC_NODE": 328.8906,
        "ARG_OF_PERICENTER": 214.206,
        "MEAN_ANOMALY": 145.7822,
        "EPHEMERIS_TYPE": 0,
        "CLASSIFICATION_TYPE": "U",
        "NORAD_CAT_ID": 41330,
        "ELEMENT_SET_NO": 999,
        "REV_AT_EPOCH": 7073,
        "BSTAR": 0,
        "MEAN_MOTION_DOT": -6.9e-07,
        "MEAN_MOTION_DDOT": 0
    }
]