37139,COSMOS 2464 [GLONASS-M],2010,675.74,1415.0,-,63.92,Inactive,1,MEO,Kazakhstan,Russia/USSR,Commercial/Military,Navigation (Global or Regional Positioning),Proton,1 37139U 10041C   25068.65372969 -.00000007  00000+0  00000+0 0  9993,2 37139  63.9170 206.1725 0033260  12.2461 322.8810  2.13099588112984,2.13099588,0.003326,MEO
37372,COSMOS 2471 [GLONASS-K],2011,676.34,935.0,-,65.66,Inactive,1,MEO,Russia,Russia/USSR,Commercial/Military,Navigation (Global or Regional Positioning),Soyuz,1 37372U 11009A   25067.42699524 -.00000075  00000+0  00000+0 0  9995,2 37372  65.6616 330.1829 0009467 328.1470 144.2516  2.12911330109163,2.1291133,0.0009467,MEO
37829,COSMOS 2474 [GLONASS-M],2011,675.73,-1.0,-,65.03,Inactive,0,MEO,Russia,Russia/USSR,Unknown,Unknown,Unknown,1 37829U 11055A   25068.45947550  .00000042  00000+0  00000+0 0  9995,2 37829  65.0316  88.5914 0011690 249.9848 104.5302  2.13101301104549,2.13101301,0.001169,MEO
37938,COSMOS 2478 [GLONASS-M],2011,676.01,-1.0,-,65.71,Inactive,0,MEO,Russia,Russia/USSR,Unknown,Unknown,Unknown,1 37938U 11071A   25068.43785508 -.00000074  00000+0  00000+0 0  9991,2 37938  65.7143 330.5106 0016338 224.5616 319.1574  2.13015433103245,2.13015433,0.0016338,MEO
37867,COSMOS 2476 [GLONASS-M],2011,675.73,1415.0,+,65.01,Active,1,MEO,Kazakhstan,Russia/USSR,Commercial/Military,Navigation (Global or Regional Positioning),Proton,1 37867U 11064A   25069.51673781  .00000047  00000+0  00000+0 0  9992,2 37867  65.0126  88.5552 0024836 241.2087 251.4741  2.13101556103881,2.13101556,0.0024836,MEO
37868,COSMOS 2477 [GLONASS-M],2011,675.73,1415.0,+,65.02,Active,1,MEO,Kazakhstan,Russia/USSR,Commercial/Military,Navigation (Global or Regional Positioning),Proton,1 37868U 11064B   25066.75960111  .00000028  00000+0  00000+0 0  9991,2 37868  65.0177  88.7236 0022031 242.6007 114.3545  2.13102957103819,2.13102957,0.0022031,MEO
37869,COSMOS 2475 [GLONASS-M],2011,675.73,1415.0,+,65.03,Active,1,MEO,Kazakhstan,Russia/USSR,Commercial/Military,Navigation (Global or Regional Positioning),Proton,1 37869U 11064C   25069.40322271  .00000047  00000+0  00000+0 0  9997,2 37869  65.0262  88.6513 0027511 255.2351 287.0000  2.13101696103882,2.13101696,0.0027511,MEO
39155,COSMOS 2485 [GLONASS-M],2013,675.72,1415.0,+,65.17,Active,1,MEO,Russia,Russia/USSR,Commercial/Military,Navigation (Global or Regional Positioning),Soyuz,1 39155U 13019A   25069.28409528  .00000047  00000+0  00000+0 0  9996,2 39155  65.1673  89.2021 0025104 237.2911 122.5243  2.13104462 92397,2.13104462,0.0025104,MEO
39620,COSMOS 2492 [GLONASS-M],2014,675.73,-1.0,+,65.55,Active,0,MEO,Russia,Russia/USSR,Unknown,Unknown,Unknown,1 39620U 14012A   25069.24045512 -.00000070  00000+0  00000+0 0  9999,2 39620  65.5529 329.6627 0013776 326.4597  33.4976  2.13103200 85354,2.131032,0.0013776,MEO
40001,COSMOS 2500 [GLONASS-M],2014,675.72,1415.0,+,65.49,Active,1,MEO,Russia,Russia/USSR,Commercial/Military,Navigation (Global or Regional Positioning),Soyuz,1 40001U 14032A   25067.07002117 -.00000075  00000+0  00000+0 0  9994,2 40001  65.4905 329.5204 0004831 208.0066 152.0081  2.13105931 83529,2.13105931,0.0004831,MEO
40315,COSMOS 2501 [GLONASS-K],2014,675.74,935.0,+,63.62,Active,1,MEO,Russia,Russia/USSR,Commercial/Military,Navigation (Global or Regional Positioning),Soyuz,1 40315U 14075A   25064.97983004  .00000050  00000+0  00000+0 0  9990,2 40315  63.6181 206.5854 0019745 205.1046 154.7740  2.13101255 79873,2.13101255,0.0019745,MEO
41330,COSMOS 2514 [GLONASS-M],2016,675.73,1415.0,+,65.28,Active,1,MEO,Russia,Russia/USSR,Commercial/Military,Navigation (Global or Regional Positioning),Soyuz,1 41330U 16008A   25069.18661381 -.00000069  00000+0  00000+0 0  9996,2 41330  65.2820 328.8906 0008819 214.2060 145.7822  2.13102619 70734,2.13102619,0.0008819,MEO
